start=new Date('2023-01-21T00:00:00.000Z').valueOf();
sats=[{"ELEMENT_SET_NO":"999","FILE":"3755973","REV_AT_EPOCH":"16423","DECAY_DATE":null,"PERIAPSIS":"545.906","BSTAR":"0.00207120000000","MEAN_MOTION_DDOT":"0.0000000000000","SITE":"AFETR","MEAN_ANOMALY":"291.0605","GP_ID":"223543666","TLE_LINE1":"1 45078U 20006AL  23020.24660205  .00030733  00000-0  20712-2 0  9994","ECCENTRICITY":"0.00017370","MEAN_MOTION":"15.06434231","MEAN_MOTION_DOT":"0.00030733","EPOCH":"2023-01-20T05:55:06.417120","INCLINATION":"53.0543","TIME_SYSTEM":"UTC","CLASSIFICATION_TYPE":"U","ARG_OF_PERICENTER":"69.0570","RCS_SIZE":"LARGE","LAUNCH_DATE":"2020-01-29","PERIOD":"95.590","RA_OF_ASC_NODE":"4.2312","OBJECT_ID":"2020-006AL","SEMIMAJOR_AXIS":"6925.244","CENTER_NAME":"EARTH","COUNTRY_CODE":"US","EPHEMERIS_TYPE":"0","OBJECT_TYPE":"PAYLOAD","TLE_LINE2":"2 45078  53.0543   4.2312 0001737  69.0570 291.0605 15.06434231164231","NORAD_CAT_ID":"45078","MEAN_ELEMENT_THEORY":"SGP4","REF_FRAME":"TEME","OBJECT_NAME":"STARLINK-1177","APOAPSIS":"548.312"},{"SITE":"AFETR","MEAN_MOTION_DDOT":"0.0000000000000","GP_ID":"223493506","MEAN_ANOMALY":"260.7236","BSTAR":"0.00074650000000","PERIAPSIS":"546.029","DECAY_DATE":null,"REV_AT_EPOCH":"16410","FILE":"3754973","ELEMENT_SET_NO":"999","EPOCH":"2023-01-19T08:39:52.812288","MEAN_MOTION_DOT":"0.00010861","CLASSIFICATION_TYPE":"U","TIME_SYSTEM":"UTC","ARG_OF_PERICENTER":"99.3937","INCLINATION":"53.0521","ECCENTRICITY":"0.00016250","MEAN_MOTION":"15.06419396","TLE_LINE1":"1 45079U 20006AM  23019.36102792  .00010861  00000-0  74650-3 0  9999","CENTER_NAME":"EARTH","SEMIMAJOR_AXIS":"6925.289","OBJECT_ID":"2020-006AM","RA_OF_ASC_NODE":"8.1948","EPHEMERIS_TYPE":"0","COUNTRY_CODE":"US","PERIOD":"95.591","RCS_SIZE":"LARGE","LAUNCH_DATE":"2020-01-29","APOAPSIS":"548.279","OBJECT_NAME":"STARLINK-1149","NORAD_CAT_ID":"45079","TLE_LINE2":"2 45079  53.0521   8.1948 0001625  99.3937 260.7236 15.06419396164109","OBJECT_TYPE":"PAYLOAD","REF_FRAME":"TEME","MEAN_ELEMENT_THEORY":"SGP4"},{"ELEMENT_SET_NO":"999","FILE":"3755973","REV_AT_EPOCH":"16426","DECAY_DATE":null,"PERIAPSIS":"545.947","BSTAR":"0.00015633000000","MEAN_MOTION_DDOT":"0.0000000000000","SITE":"AFETR","MEAN_ANOMALY":"286.4433","GP_ID":"223542667","TLE_LINE1":"1 45080U 20006AN  23020.36456320  .00002047  00000-0  15633-3 0  9995","ECCENTRICITY":"0.00018650","MEAN_MOTION":"15.06391846","MEAN_MOTION_DOT":"0.00002047","EPOCH":"2023-01-20T08:44:58.260480","INCLINATION":"53.0533","ARG_OF_PERICENTER":"73.6761","CLASSIFICATION_TYPE":"U","TIME_SYSTEM":"UTC","LAUNCH_DATE":"2020-01-29","RCS_SIZE":"LARGE","PERIOD":"95.593","RA_OF_ASC_NODE":"3.7019","OBJECT_ID":"2020-006AN","SEMIMAJOR_AXIS":"6925.374","CENTER_NAME":"EARTH","COUNTRY_CODE":"US","EPHEMERIS_TYPE":"0","TLE_LINE2":"2 45080  53.0533   3.7019 0001865  73.6761 286.4433 15.06391846164260","OBJECT_TYPE":"PAYLOAD","NORAD_CAT_ID":"45080","MEAN_ELEMENT_THEORY":"SGP4","REF_FRAME":"TEME","OBJECT_NAME":"STARLINK-1153","APOAPSIS":"548.530"},{"OBJECT_NAME":"STARLINK-1151","APOAPSIS":"548.501","TLE_LINE2":"2 45081  53.0560   3.7828 0001832  79.4508 280.6687 15.06393921164269","OBJECT_TYPE":"PAYLOAD","NORAD_CAT_ID":"45081","MEAN_ELEMENT_THEORY":"SGP4","REF_FRAME":"TEME","SEMIMAJOR_AXIS":"6925.367","OBJECT_ID":"2020-006AP","CENTER_NAME":"EARTH","RA_OF_ASC_NODE":"3.7828","EPHEMERIS_TYPE":"0","COUNTRY_CODE":"US","PERIOD":"95.593","LAUNCH_DATE":"2020-01-29","RCS_SIZE":"LARGE","EPOCH":"2023-01-20T08:11:45.664800","MEAN_MOTION_DOT":"0.00007595","INCLINATION":"53.0560","ARG_OF_PERICENTER":"79.4508","CLASSIFICATION_TYPE":"U","TIME_SYSTEM":"UTC","ECCENTRICITY":"0.00018320","MEAN_MOTION":"15.06393921","TLE_LINE1":"1 45081U 20006AP  23020.34150075  .00007595  00000-0  52832-3 0  9997","SITE":"AFETR","MEAN_MOTION_DDOT":"0.0000000000000","MEAN_ANOMALY":"280.6687","GP_ID":"223542916","REV_AT_EPOCH":"16426","DECAY_DATE":null,"PERIAPSIS":"545.963","BSTAR":"0.00052832000000","ELEMENT_SET_NO":"999","FILE":"3755973"},{"MEAN_ANOMALY":"271.7502","GP_ID":"223544166","SITE":"AFETR","MEAN_MOTION_DDOT":"0.0000000000000","REV_AT_EPOCH":"16425","DECAY_DATE":null,"PERIAPSIS":"545.952","BSTAR":"0.00208310000000","ELEMENT_SET_NO":"999","FILE":"3755973","INCLINATION":"53.0534","TIME_SYSTEM":"UTC","CLASSIFICATION_TYPE":"U","ARG_OF_PERICENTER":"88.3698","EPOCH":"2023-01-20T07:55:50.208672","MEAN_MOTION_DOT":"0.00030878","ECCENTRICITY":"0.00018480","MEAN_MOTION":"15.06394105","TLE_LINE1":"1 45082U 20006AQ  23020.33044223  .00030878  00000-0  20831-2 0  9997","EPHEMERIS_TYPE":"0","COUNTRY_CODE":"US","OBJECT_ID":"2020-006AQ","SEMIMAJOR_AXIS":"6925.367","CENTER_NAME":"EARTH","RA_OF_ASC_NODE":"3.8417","PERIOD":"95.593","RCS_SIZE":"LARGE","LAUNCH_DATE":"2020-01-29","OBJECT_NAME":"STARLINK-1160","APOAPSIS":"548.511","MEAN_ELEMENT_THEORY":"SGP4","REF_FRAME":"TEME","TLE_LINE2":"2 45082  53.0534   3.8417 0001848  88.3698 271.7502 15.06394105164253","OBJECT_TYPE":"PAYLOAD","NORAD_CAT_ID":"45082"},{"NORAD_CAT_ID":"45083","OBJECT_TYPE":"PAYLOAD","TLE_LINE2":"2 45083  53.0546  23.9960 0001662  81.9299 278.1879 15.06396524163976","REF_FRAME":"TEME","MEAN_ELEMENT_THEORY":"SGP4","APOAPSIS":"548.375","OBJECT_NAME":"STARLINK-1190","LAUNCH_DATE":"2020-01-29","RCS_SIZE":"LARGE","PERIOD":"95.592","RA_OF_ASC_NODE":"23.9960","CENTER_NAME":"EARTH","SEMIMAJOR_AXIS":"6925.359","OBJECT_ID":"2020-006AR","COUNTRY_CODE":"US","EPHEMERIS_TYPE":"0","TLE_LINE1":"1 45083U 20006AR  23020.29636916  .00019593  00000-0  13307-2 0  9990","ECCENTRICITY":"0.00016620","MEAN_MOTION":"15.06396524","MEAN_MOTION_DOT":"0.00019593","EPOCH":"2023-01-20T07:06:46.295424","TIME_SYSTEM":"UTC","CLASSIFICATION_TYPE":"U","ARG_OF_PERICENTER":"81.9299","INCLINATION":"53.0546","FILE":"3755973","ELEMENT_SET_NO":"999","BSTAR":"0.00133070000000","PERIAPSIS":"546.073","REV_AT_EPOCH":"16397","DECAY_DATE":null,"MEAN_MOTION_DDOT":"0.0000000000000","SITE":"AFETR","GP_ID":"223543915","MEAN_ANOMALY":"278.1879"},{"FILE":"3755973","ELEMENT_SET_NO":"999","PERIAPSIS":"546.384","BSTAR":"0.00166430000000","REV_AT_EPOCH":"16456","DECAY_DATE":null,"GP_ID":"223543166","MEAN_ANOMALY":"256.3797","MEAN_MOTION_DDOT":"0.0000000000000","SITE":"AFETR","TLE_LINE1":"1 45084U 20006AS  23020.47698124  .00024602  00000-0  16643-2 0  9993","MEAN_MOTION":"15.06409797","ECCENTRICITY":"0.00011540","CLASSIFICATION_TYPE":"U","ARG_OF_PERICENTER":"103.7320","TIME_SYSTEM":"UTC","INCLINATION":"53.0525","MEAN_MOTION_DOT":"0.00024602","EPOCH":"2023-01-20T11:26:51.179136","RCS_SIZE":"LARGE","LAUNCH_DATE":"2020-01-29","PERIOD":"95.592","COUNTRY_CODE":"US","EPHEMERIS_TYPE":"0","RA_OF_ASC_NODE":"343.1978","CENTER_NAME":"EARTH","OBJECT_ID":"2020-006AS","SEMIMAJOR_AXIS":"6925.319","REF_FRAME":"TEME","MEAN_ELEMENT_THEORY":"SGP4","NORAD_CAT_ID":"45084","OBJECT_TYPE":"PAYLOAD","TLE_LINE2":"2 45084  53.0525 343.1978 0001154 103.7320 256.3797 15.06409797164564","APOAPSIS":"547.983","OBJECT_NAME":"STARLINK-1173"},{"PERIOD":"95.593","RCS_SIZE":"LARGE","LAUNCH_DATE":"2020-01-29","CENTER_NAME":"EARTH","SEMIMAJOR_AXIS":"6925.367","OBJECT_ID":"2020-006AT","RA_OF_ASC_NODE":"344.1084","EPHEMERIS_TYPE":"0","COUNTRY_CODE":"US","NORAD_CAT_ID":"45085","TLE_LINE2":"2 45085  53.0536 344.1084 0001524 122.2540 237.8597 15.06394139164539","OBJECT_TYPE":"PAYLOAD","REF_FRAME":"TEME","MEAN_ELEMENT_THEORY":"SGP4","APOAPSIS":"548.287","OBJECT_NAME":"STARLINK-1179","BSTAR":"0.00118440000000","PERIAPSIS":"546.176","REV_AT_EPOCH":"16453","DECAY_DATE":null,"FILE":"3755973","ELEMENT_SET_NO":"999","SITE":"AFETR","MEAN_MOTION_DDOT":"0.0000000000000","GP_ID":"223543416","MEAN_ANOMALY":"237.8597","ECCENTRICITY":"0.00015240","MEAN_MOTION":"15.06394139","TLE_LINE1":"1 45085U 20006AT  23020.27425316  .00017401  00000-0  11844-2 0  9990","EPOCH":"2023-01-20T06:34:55.473024","MEAN_MOTION_DOT":"0.00017401","CLASSIFICATION_TYPE":"U","ARG_OF_PERICENTER":"122.2540","TIME_SYSTEM":"UTC","INCLINATION":"53.0536"},{"RCS_SIZE":"LARGE","LAUNCH_DATE":"2020-01-29","PERIOD":"93.993","COUNTRY_CODE":"US","EPHEMERIS_TYPE":"0","RA_OF_ASC_NODE":"310.0075","CENTER_NAME":"EARTH","OBJECT_ID":"2020-006AU","SEMIMAJOR_AXIS":"6847.881","REF_FRAME":"TEME","MEAN_ELEMENT_THEORY":"SGP4","NORAD_CAT_ID":"45086","TLE_LINE2":"2 45086  52.9799 310.0075 0002557 105.6685 254.4597 15.32034143164870","OBJECT_TYPE":"PAYLOAD","APOAPSIS":"471.497","OBJECT_NAME":"STARLINK-1181","FILE":"3755973","ELEMENT_SET_NO":"999","BSTAR":"0.00331520000000","PERIAPSIS":"467.995","REV_AT_EPOCH":"16487","DECAY_DATE":null,"GP_ID":"223543667","MEAN_ANOMALY":"254.4597","MEAN_MOTION_DDOT":"0.0000000000000","SITE":"AFETR","TLE_LINE1":"1 45086U 20006AU  23020.21884649  .00105078  00000-0  33152-2 0  9997","MEAN_MOTION":"15.32034143","ECCENTRICITY":"0.00025570","TIME_SYSTEM":"UTC","CLASSIFICATION_TYPE":"U","ARG_OF_PERICENTER":"105.6685","INCLINATION":"52.9799","MEAN_MOTION_DOT":"0.00105078","EPOCH":"2023-01-20T05:15:08.336736"},{"MEAN_MOTION":"15.06388131","ECCENTRICITY":"0.00014140","TLE_LINE1":"1 45087U 20006AV  23020.19316563  .00024565  00000-0  16628-2 0  9990","CLASSIFICATION_TYPE":"U","ARG_OF_PERICENTER":"75.9739","TIME_SYSTEM":"UTC","INCLINATION":"53.0538","EPOCH":"2023-01-20T04:38:09.510432","MEAN_MOTION_DOT":"0.00024565","BSTAR":"0.00166280000000","PERIAPSIS":"546.271","DECAY_DATE":null,"REV_AT_EPOCH":"16497","FILE":"3755973","ELEMENT_SET_NO":"999","GP_ID":"223544415","MEAN_ANOMALY":"284.1407","SITE":"AFETR","MEAN_MOTION_DDOT":"0.0000000000000","REF_FRAME":"TEME","MEAN_ELEMENT_THEORY":"SGP4","NORAD_CAT_ID":"45087","TLE_LINE2":"2 45087  53.0538 344.4693 0001414  75.9739 284.1407 15.06388131164972","OBJECT_TYPE":"PAYLOAD","APOAPSIS":"548.229","OBJECT_NAME":"STARLINK-1185","PERIOD":"95.593","RCS_SIZE":"LARGE","LAUNCH_DATE":"2020-01-29","EPHEMERIS_TYPE":"0","COUNTRY_CODE":"US","CENTER_NAME":"EARTH","SEMIMAJOR_AXIS":"6925.385","OBJECT_ID":"2020-006AV","RA_OF_ASC_NODE":"344.4693"}];
